32263,GLOBALSTAR M067,2007,116.07,450.0,-,51.98,Inactive,1,LEO,Kazakhstan,Globalstar,Commercial,Communications,Soyuz,1 32263U 07048A   25053.92865103 -.00000048  00000+0  36481-3 0  9991,2 32263  51.9755  10.2607 0001271  90.2351 309.9680 12.40666747795309,12.40666747,0.0001271,LEO
32266,GLOBALSTAR M068,2007,114.03,-1.0,-,51.99,Inactive,0,LEO,Kazakhstan,Globalstar,Unknown,Unknown,Unknown,1 32266U 07048D   25053.92798898 -.00000051  00000+0  29106-3 0  9990,2 32266  51.9885 290.5588 0000189 187.0557 185.8655 12.62815931803125,12.62815931,1.89e-05,LEO
32264,GLOBALSTAR M070,2007,114.08,450.0,+,51.97,Active,1,LEO,Kazakhstan,Globalstar,Commercial,Communications,Soyuz,1 32264U 07048B   25054.42092153 -.00000077  00000+0  14797-3 0  9993,2 32264  51.9744 115.0813 0000561 144.9207 228.3237 12.62312552800281,12.62312552,5.61e-05,LEO
32265,GLOBALSTAR M066,2007,116.39,450.0,+,51.97,Active,1,LEO,Kazakhstan,Globalstar,Commercial,Communications,Soyuz,1 32265U 07048C   25053.95376234 -.00000096  00000+0 -62122-6 0  9996,2 32265  51.9699 356.3424 0000715   4.7785 109.2071 12.37190722801182,12.37190722,7.15e-05,LEO
37188,GLOBALSTAR M079,2010,114.08,700.0,+,52.0,Active,1,LEO,Kazakhstan,Globalstar,Commercial,Communications,Soyuz,1 37188U 10054A   25053.93856852 -.00000098  00000+0  33510-4 0  9991,2 37188  52.0032 127.5787 0000724  94.6129  76.0109 12.62271134662020,12.62271134,7.24e-05,LEO
37189,GLOBALSTAR M074,2010,114.08,700.0,+,52.0,Active,1,LEO,Kazakhstan,Globalstar,Commercial,Communications,Soyuz,1 37189U 10054B   25053.96531147 -.00000093  00000+0  57848-4 0  9997,2 37189  52.0010 126.8384 0000774 125.0665  46.3125 12.62266624662634,12.62266624,7.74e-05,LEO
37190,GLOBALSTAR M076,2010,114.08,700.0,+,52.0,Active,1,LEO,Kazakhstan,Globalstar,Commercial,Communications,Soyuz,1 37190U 10054C   25053.91193503 -.00000098  00000+0  34993-4 0  9995,2 37190  52.0024 127.1580 0000979 109.1020  61.9649 12.62277927662348,12.62277927,9.79e-05,LEO
37191,GLOBALSTAR M077,2010,114.08,700.0,+,52.01,Active,1,LEO,Kazakhstan,Globalstar,Commercial,Communications,Soyuz,1 37191U 10054D   25053.82001818 -.00000097  00000+0  38719-4 0  9992,2 37191  52.0067  84.2637 0000455 117.3783  53.6690 12.62271160662705,12.6227116,4.55e-05,LEO
